BIRKELAND               
1 55015U 23001G   26169.25104932  .00006971  00000+0  17614-3 0  9996
2 55015  97.3342 237.2236 0008343 102.2166 258.0015 15.40091376192512
ION SCV-008             
1 55051U 23001AU  26169.28533028  .00004930  00000+0  17956-3 0  9993
2 55051  97.5713 265.6214 0014910  14.7903 345.3769 15.28586520191500
ION SCV-007             
1 55060U 23001BD  26169.14603843  .00000328  00000+0  53028-4 0  9999
2 55060  97.9006 232.1420 0011728 338.9896  21.0831 14.77554221186398
HUYGENS                 
1 55093U 23001CN  26169.25113506  .00007101  00000+0  17922-3 0  9997
2 55093  97.3247 236.4521 0011033  83.1157 277.1344 15.40092012192534
SHARJAHSAT-1            
1 55104U 23001CZ  26169.14637994  .00016064  00000+0  29716-3 0  9992
2 55104  97.3170 237.9255 0007021 100.5585 259.6457 15.49093923192646
HORUS 1                 
1 55690U 23025A   26169.26963149  .00004444  00000+0  19044-3 0  9997
2 55690  97.3460 243.8429 0001420 149.3529 210.7791 15.23271414184211
HORUS 2                 
1 55844U 23032A   26169.23945550  .00004397  00000+0  18752-3 0  9991
2 55844  97.3533 244.6193 0002295 104.5413 255.6078 15.23435471181641
GLOBAL-19               
1 55982U 23041B   26169.26748469  .00008972  00000+0  24086-3 0  9997
2 55982  41.9998 195.5863 0008578  10.0512 350.0498 15.38041877182098
BRO-9                   
1 56185U 23054H   26168.07405672  .00742204  28587-3  98118-3 0  9995
2 56185  97.2919  86.6249 0008433 169.1361 191.0105 16.06773771179070
ION SCV-010             
1 56192U 23054Q   26169.14342963  .00003693  00000+0  14533-3 0  9992
2 56192  97.3778  58.6326 0012288 193.6384 166.4524 15.26203795176340
TELEOS-2                
1 56310U 23057C   26168.75595669  .00000688  00000+0  45760-7 0  9997
2 56310   9.9867 200.0219 0000181 229.2865 130.7333 14.96411162172885
SNIPE 4                 
1 56744U 23072B   26169.31687353  .00016090  00000+0  37431-3 0  9996
2 56744  97.5246  15.3574 0004270 333.6386  26.4643 15.42386869170286
SNIPE 2                 
1 56745U 23072C   26169.29172870  .00021178  00000+0  42223-3 0  9995
2 56745  97.5241  18.3830 0004000  10.6733 349.4600 15.46893547170415
2023-072G               
1 56749U 23072G   26169.28953958  .00024825  00000+0  43423-3 0  9997
2 56749  97.4899  17.1852 0002676   5.3685 354.7594 15.50625438170634
GEISAT PRECURSOR        
1 56934U 23084C   26169.32733140  .00005752  00000+0  17373-3 0  9993
2 56934  97.6230 310.3175 0004843 353.4352   6.6826 15.34663333167706
BLACKJACK ACES-3        
1 56950U 23084U   26169.29039026  .00003856  00000+0  19045-3 0  9990
2 56950  97.6217 304.4891 0002492  34.7072 325.4324 15.18479022167330
BLACKJACK ACES-2        
1 56955U 23084Z   26168.96698443  .00003684  00000+0  18210-3 0  9994
2 56955  97.6212 304.2486 0000743  88.5351 271.5968 15.18486689167299
BLACKJACK ACES-1        
1 56956U 23084AA  26169.15252440  .00005434  00000+0  26594-3 0  9999
2 56956  97.6204 304.2089 0001275 104.4097 255.7279 15.18615582117049
ION SCV-011             
1 56957U 23084AB  26169.11349548  .00004133  00000+0  15048-3 0  9999
2 56957  98.1378 356.4780 0007938  42.6809 317.5044 15.28853428165955
GHOST-3                 
1 56958U 23084AC  26168.93925478  .00014722  00000+0  28426-3 0  9990
2 56958  97.6219 317.5509 0005491 290.6504  69.4156 15.47900500168135
TOMORROW-R2             
1 56962U 23084AG  26168.54238035  .00626944  20692-3  71072-3 0  9991
2 56962  97.6065 332.8368 0008813 242.9726 117.0657 16.09179659169116
AFR-1                   
1 56964U 23084AJ  26169.34519860  .00003577  00000+0  13143-3 0  9993
2 56964  97.6279 306.0636 0009845 342.6100  17.4800 15.28563038167407
METEOR-M2 3             
1 57166U 23091A   26169.29293069  .00000028  00000+0  31097-4 0  9997
2 57166  98.6090 224.2486 0004394 152.5236 207.6176 14.24046946154673
UMKA 1 (RS40S)          
1 57172U 23091G   26169.21244916  .00004588  00000+0  21062-3 0  9998
2 57172  97.5047 227.9057 0014257 114.4510 245.8215 15.20828137164165
2023-091H               
1 57173U 23091H   26169.23031994  .00008940  00000+0  32291-3 0  9993
2 57173  97.5044 232.4307 0011260 109.9462 250.2992 15.28655737164465
2023-091J               
1 57174U 23091J   26169.31201223  .00002864  00000+0  16131-3 0  9991
2 57174  97.5052 222.3925 0014390 139.4858 220.7448 15.13933000163804
CUBEBEL 2 (EU11S)       
1 57175U 23091K   26169.23083763  .00009918  00000+0  35226-3 0  9993
2 57175  97.5047 232.4571 0011303 111.5241 248.7205 15.29173857164463
SITRO-AIS 5 (KATYS)     
1 57176U 23091L   26169.24762549  .00009785  00000+0  34420-3 0  9998
2 57176  97.5056 233.1570 0012755 100.1940 260.0739 15.29477635164508
ZORKIY-2M 1             
1 57177U 23091M   26169.26457491  .00005332  00000+0  24357-3 0  9990
2 57177  97.5087 228.2265 0014816 111.8457 248.4356 15.20914950164165
CUBESX-HSE 3 (RS42S)    
1 57178U 23091N   26169.21943032  .00009747  00000+0  32490-3 0  9998
2 57178  97.5088 234.8196 0012020  91.6666 268.5952 15.31236495164589
