OBJECT_NAME,OBJECT_ID,EPOCH,MEAN_MOTION,ECCENTRICITY,INCLINATION,RA_OF_ASC_NODE,ARG_OF_PERICENTER,MEAN_ANOMALY,EPHEMERIS_TYPE,CLASSIFICATION_TYPE,NORAD_CAT_ID,ELEMENT_SET_NO,REV_AT_EPOCH,BSTAR,MEAN_MOTION_DOT,MEAN_MOTION_DDOT
BIRKELAND,2023-001G,2026-06-18T06:01:30.661248,15.40091376,.00083438,97.3342,237.2236,102.2166,258.0015,0,U,55015,999,19251,.17614023E-3,.6971E-4,0
ION SCV-008,2023-001AU,2026-06-18T06:50:52.536192,15.28586520,.00149103,97.5713,265.6214,14.7903,345.3769,0,U,55051,999,19150,.17956373E-3,.493E-4,0
ION SCV-007,2023-001BD,2026-06-18T03:30:17.720352,14.77554221,.00117281,97.9006,232.1420,338.9896,21.0831,0,U,55060,999,18639,.5302817E-4,.328E-5,0
HUYGENS,2023-001CN,2026-06-18T06:01:38.069184,15.40092012,.00110334,97.3247,236.4521,83.1157,277.1344,0,U,55093,999,19253,.17921547E-3,.7101E-4,0
SHARJAHSAT-1,2023-001CZ,2026-06-18T03:30:47.226816,15.49093923,.00070219,97.3170,237.9255,100.5585,259.6457,0,U,55104,999,19264,.29716058E-3,.16064E-3,0
HORUS 1,2023-025A,2026-06-18T06:28:16.160736,15.23271414,.00014207,97.3460,243.8429,149.3529,210.7791,0,U,55690,999,18421,.19044379E-3,.4444E-4,0
HORUS 2,2023-032A,2026-06-18T05:44:48.955200,15.23435471,.00022957,97.3533,244.6193,104.5413,255.6078,0,U,55844,999,18164,.18752316E-3,.4397E-4,0
GLOBAL-19,2023-041B,2026-06-18T06:25:10.677216,15.38041877,.00085787,41.9998,195.5863,10.0512,350.0498,0,U,55982,999,18209,.24086036E-3,.8972E-4,0
BRO-9,2023-054H,2026-06-17T01:46:38.500608,16.06773771,.0008433,97.2919,86.6249,169.1361,191.0105,0,U,56185,999,17907,.98118242E-3,.742204E-2,.28586556E-3
ION SCV-010,2023-054Q,2026-06-18T03:26:32.320032,15.26203795,.00122885,97.3778,58.6326,193.6384,166.4524,0,U,56192,999,17634,.14532796E-3,.3693E-4,0
TELEOS-2,2023-057C,2026-06-17T18:08:34.658016,14.96411162,.00001818,9.9867,200.0219,229.2865,130.7333,0,U,56310,999,17288,.4576E-7,.688E-5,0
SNIPE 4,2023-072B,2026-06-18T07:36:17.872992,15.42386869,.00042701,97.5246,15.3574,333.6386,26.4643,0,U,56744,999,17028,.37430632E-3,.1609E-3,0
SNIPE 2,2023-072C,2026-06-18T07:00:05.359680,15.46893547,.0004,97.5241,18.3830,10.6733,349.4600,0,U,56745,999,17041,.42222891E-3,.21178E-3,0
2023-072G,2023-072G,2026-06-18T06:56:56.219712,15.50625438,.00026768,97.4899,17.1852,5.3685,354.7594,0,U,56749,999,17063,.43423484E-3,.24825E-3,0
GEISAT PRECURSOR,2023-084C,2026-06-18T07:51:21.432960,15.34663333,.0004843,97.6230,310.3175,353.4352,6.6826,0,U,56934,999,16770,.17373236E-3,.5752E-4,0
BLACKJACK ACES-3,2023-084U,2026-06-18T06:58:09.718464,15.18479022,.00024922,97.6217,304.4891,34.7072,325.4324,0,U,56950,999,16733,.19045301E-3,.3856E-4,0
BLACKJACK ACES-2,2023-084Z,2026-06-17T23:12:27.454752,15.18486689,.00007439,97.6212,304.2486,88.5351,271.5968,0,U,56955,999,16729,.182097E-3,.3684E-4,0
BLACKJACK ACES-1,2023-084AA,2026-06-18T03:39:38.108160,15.18615582,.00012753,97.6204,304.2089,104.4097,255.7279,0,U,56956,999,11704,.26594141E-3,.5434E-4,0
ION SCV-011,2023-084AB,2026-06-18T02:43:26.009472,15.28853428,.00079386,98.1378,356.4780,42.6809,317.5044,0,U,56957,999,16595,.15048474E-3,.4133E-4,0
GHOST-3,2023-084AC,2026-06-17T22:32:31.612992,15.47900500,.00054912,97.6219,317.5509,290.6504,69.4156,0,U,56958,999,16813,.28425543E-3,.14722E-3,0
TOMORROW-R2,2023-084AG,2026-06-17T13:01:01.662240,16.09179659,.0008813,97.6065,332.8368,242.9726,117.0657,0,U,56962,999,16911,.71072E-3,.626944E-2,.20692E-3
AFR-1,2023-084AJ,2026-06-18T08:17:05.159040,15.28563038,.00098458,97.6279,306.0636,342.6100,17.4800,0,U,56964,999,16740,.13142892E-3,.3577E-4,0
METEOR-M2 3,2023-091A,2026-06-18T07:01:49.211616,14.24046946,.00043947,98.6090,224.2486,152.5236,207.6176,0,U,57166,999,15467,.31096609E-4,.28E-6,0
UMKA 1 (RS40S),2023-091G,2026-06-18T05:05:55.607424,15.20828137,.00142577,97.5047,227.9057,114.4510,245.8215,0,U,57172,999,16416,.21062077E-3,.4588E-4,0
2023-091H,2023-091H,2026-06-18T05:31:39.642816,15.28655737,.00112609,97.5044,232.4307,109.9462,250.2992,0,U,57173,999,16446,.32291213E-3,.894E-4,0
2023-091J,2023-091J,2026-06-18T07:29:17.856672,15.13933000,.00143909,97.5052,222.3925,139.4858,220.7448,0,U,57174,999,16380,.16131348E-3,.2864E-4,0
CUBEBEL 2 (EU11S),2023-091K,2026-06-18T05:32:24.371232,15.29173857,.00113038,97.5047,232.4571,111.5241,248.7205,0,U,57175,999,16446,.35225798E-3,.9918E-4,0
SITRO-AIS 5 (KATYS),2023-091L,2026-06-18T05:56:34.842336,15.29477635,.00127559,97.5056,233.1570,100.1940,260.0739,0,U,57176,999,16450,.34420209E-3,.9785E-4,0
ZORKIY-2M 1,2023-091M,2026-06-18T06:20:59.272224,15.20914950,.00148169,97.5087,228.2265,111.8457,248.4356,0,U,57177,999,16416,.24356566E-3,.5332E-4,0
CUBESX-HSE 3 (RS42S),2023-091N,2026-06-18T05:15:58.779648,15.31236495,.00120205,97.5088,234.8196,91.6666,268.5952,0,U,57178,999,16458,.32489662E-3,.9747E-4,0
